[{"OBJECT_NAME":"TOMORROW-S8","OBJECT_ID":"2025-248R","EPOCH":"2026-03-08T08:30:15.739776","MEAN_MOTION":15.19548137,"ECCENTRICITY":0.0004521,"INCLINATION":45.397,"RA_OF_ASC_NODE":301.546,"ARG_OF_PERICENTER":191.3036,"MEAN_ANOMALY":168.7749,"EPHEMERIS_TYPE":0,"CLASSIFICATION_TYPE":"U","NORAD_CAT_ID":66308,"ELEMENT_SET_NO":999,"REV_AT_EPOCH":1917,"BSTAR":0.00031708392,"MEAN_MOTION_DOT":6.587e-5,"MEAN_MOTION_DDOT":0},{"OBJECT_NAME":"NOAA 16 DEB","OBJECT_ID":"2000-055FH","EPOCH":"2026-03-09T12:30:03.934368","MEAN_MOTION":15.16827851,"ECCENTRICITY":0.00080503,"INCLINATION":98.9144,"RA_OF_ASC_NODE":269.3218,"ARG_OF_PERICENTER":278.4203,"MEAN_ANOMALY":81.6113,"EPHEMERIS_TYPE":0,"CLASSIFICATION_TYPE":"U","NORAD_CAT_ID":41257,"ELEMENT_SET_NO":999,"REV_AT_EPOCH":52995,"BSTAR":0.010284054,"MEAN_MOTION_DOT":0.00208024,"MEAN_MOTION_DDOT":0}]
